ORBCOMM FM24 [-]        
1 25478U 98053D   24056.59682694  .00002087  00000+0  77047-3 0  9991
2 25478  45.0100   8.4757 0002623 331.2058  28.8644 14.35299692329044
ORBCOMM FM25 [-]        
1 25479U 98053E   24056.56216862  .00002087  00000+0  77083-3 0  9999
2 25479  45.0092   6.8787 0004710 357.4160   2.6662 14.35282885329050
ORBCOMM FM26 [-]        
1 25480U 98053F   24056.26252388  .00001711  00000+0  64718-3 0  9995
2 25480  45.0094   2.1096 0006197  20.6783 339.4314 14.34775607328958
ORBCOMM FM27 [+]        
1 25481U 98053G   24055.92279499  .00002012  00000+0  74525-3 0  9992
2 25481  45.0074  10.1593 0001389 305.5425  54.5293 14.35255861328894
ORBCOMM FM28 [-]        
1 25482U 98053H   24056.42002115  .00001503  00000+0  56382-3 0  9993
2 25482  45.0070 306.5390 0004280  54.9176 305.2073 14.35719220329638
ORBCOMM FM30 [-]        
1 25980U 99065A   24056.44064762  .00001677  00000+0  63371-3 0  9996
2 25980  45.0307 186.7251 0006539 147.9502 212.1744 14.34916319265775
ORBCOMM FM31 [-]        
1 25981U 99065B   24056.61541364  .00001866  00000+0  69943-3 0  9995
2 25981  45.0224 179.6504 0004217 177.8409 182.2457 14.34931224265359
ORBCOMM FM32 [+]        
1 25982U 99065C   24056.47341373  .00001668  00000+0  64338-3 0  9991
2 25982  45.0148 193.5789 0006563 170.8167 189.2801 14.33896913265977
